[{"OBJECT_NAME":"GOES 17","OBJECT_ID":"2018-022A","EPOCH":"2026-03-15T04:56:57.675840","MEAN_MOTION":1.00272306,"ECCENTRICITY":0.00016317,"INCLINATION":0.6944,"RA_OF_ASC_NODE":87.3034,"ARG_OF_PERICENTER":233.7876,"MEAN_ANOMALY":196.4486,"EPHEMERIS_TYPE":0,"CLASSIFICATION_TYPE":"U","NORAD_CAT_ID":43226,"ELEMENT_SET_NO":999,"REV_AT_EPOCH":2948,"BSTAR":0,"MEAN_MOTION_DOT":-1.83e-6,"MEAN_MOTION_DDOT":0},{"OBJECT_NAME":"GSAT0221 (GALILEO 25)","OBJECT_ID":"2018-060A","EPOCH":"2026-03-06T23:58:48.751968","MEAN_MOTION":1.70475614,"ECCENTRICITY":0.0005694,"INCLINATION":57.2026,"RA_OF_ASC_NODE":344.543,"ARG_OF_PERICENTER":308.1098,"MEAN_ANOMALY":51.8621,"EPHEMERIS_TYPE":0,"CLASSIFICATION_TYPE":"U","NORAD_CAT_ID":43564,"ELEMENT_SET_NO":999,"REV_AT_EPOCH":4742,"BSTAR":0,"MEAN_MOTION_DOT":-1.03e-6,"MEAN_MOTION_DDOT":0},{"OBJECT_NAME":"GSAT0222 (GALILEO 26)","OBJECT_ID":"2018-060B","EPOCH":"2026-03-06T01:05:30.417216","MEAN_MOTION":1.70475258,"ECCENTRICITY":0.00040842,"INCLINATION":57.206,"RA_OF_ASC_NODE":344.5721,"ARG_OF_PERICENTER":287.9587,"MEAN_ANOMALY":72.0183,"EPHEMERIS_TYPE":0,"CLASSIFICATION_TYPE":"U","NORAD_CAT_ID":43565,"ELEMENT_SET_NO":999,"REV_AT_EPOCH":4745,"BSTAR":0,"MEAN_MOTION_DOT":-1.05e-6,"MEAN_MOTION_DDOT":0},{"OBJECT_NAME":"GSAT0219 (GALILEO 23)","OBJECT_ID":"2018-060C","EPOCH":"2026-03-08T00:37:58.248768","MEAN_MOTION":1.70474822,"ECCENTRICITY":0.0004318,"INCLINATION":57.205,"RA_OF_ASC_NODE":344.5202,"ARG_OF_PERICENTER":344.0327,"MEAN_ANOMALY":15.9782,"EPHEMERIS_TYPE":0,"CLASSIFICATION_TYPE":"U","NORAD_CAT_ID":43566,"ELEMENT_SET_NO":999,"REV_AT_EPOCH":4746,"BSTAR":0,"MEAN_MOTION_DOT":-1.01e-6,"MEAN_MOTION_DDOT":0},{"OBJECT_NAME":"GSAT0220 (GALILEO 24)","OBJECT_ID":"2018-060D","EPOCH":"2026-02-27T10:45:41.962176","MEAN_MOTION":1.70475159,"ECCENTRICITY":0.0005301,"INCLINATION":57.2075,"RA_OF_ASC_NODE":344.7516,"ARG_OF_PERICENTER":308.5821,"MEAN_ANOMALY":51.3768,"EPHEMERIS_TYPE":0,"CLASSIFICATION_TYPE":"U","NORAD_CAT_ID":43567,"ELEMENT_SET_NO":999,"REV_AT_EPOCH":4730,"BSTAR":0,"MEAN_MOTION_DOT":-1.02e-6,"MEAN_MOTION_DDOT":0},{"OBJECT_NAME":"BEIDOU-3 M13","OBJECT_ID":"2018-072A","EPOCH":"2026-03-15T00:45:38.855808","MEAN_MOTION":1.86231337,"ECCENTRICITY":0.00090682,"INCLINATION":56.5429,"RA_OF_ASC_NODE":65.7646,"ARG_OF_PERICENTER":308.7674,"MEAN_ANOMALY":51.1738,"EPHEMERIS_TYPE":0,"CLASSIFICATION_TYPE":"U","NORAD_CAT_ID":43622,"ELEMENT_SET_NO":999,"REV_AT_EPOCH":5090,"BSTAR":0,"MEAN_MOTION_DOT":2.1e-7,"MEAN_MOTION_DDOT":0},{"OBJECT_NAME":"BEIDOU-3 M14","OBJECT_ID":"2018-072B","EPOCH":"2026-03-12T17:59:02.777280","MEAN_MOTION":1.86231274,"ECCENTRICITY":0.00065754,"INCLINATION":56.5428,"RA_OF_ASC_NODE":65.8343,"ARG_OF_PERICENTER":329.8398,"MEAN_ANOMALY":30.1432,"EPHEMERIS_TYPE":0,"CLASSIFICATION_TYPE":"U","NORAD_CAT_ID":43623,"ELEMENT_SET_NO":999,"REV_AT_EPOCH":5085,"BSTAR":0,"MEAN_MOTION_DOT":8.0e-8,"MEAN_MOTION_DDOT":0},{"OBJECT_NAME":"GPS BIII-1","OBJECT_ID":"2018-109A","EPOCH":"2026-03-13T12:35:29.217408","MEAN_MOTION":2.00557317,"ECCENTRICITY":0.00380595,"INCLINATION":55.6205,"RA_OF_ASC_NODE":95.9595,"ARG_OF_PERICENTER":198.5669,"MEAN_ANOMALY":333.4222,"EPHEMERIS_TYPE":0,"CLASSIFICATION_TYPE":"U","NORAD_CAT_ID":43873,"ELEMENT_SET_NO":999,"REV_AT_EPOCH":5315,"BSTAR":0,"MEAN_MOTION_DOT":3.5e-7,"MEAN_MOTION_DDOT":0},{"OBJECT_NAME":"METEOR-M2 2","OBJECT_ID":"2019-038A","EPOCH":"2026-03-15T06:06:18.739584","MEAN_MOTION":14.24336618,"ECCENTRICITY":5.845e-5,"INCLINATION":98.9092,"RA_OF_ASC_NODE":60.1831,"ARG_OF_PERICENTER":349.3933,"MEAN_ANOMALY":10.7233,"EPHEMERIS_TYPE":0,"CLASSIFICATION_TYPE":"U","NORAD_CAT_ID":44387,"ELEMENT_SET_NO":999,"REV_AT_EPOCH":34792,"BSTAR":9.1504238e-5,"MEAN_MOTION_DOT":1.66e-6,"MEAN_MOTION_DDOT":0},{"OBJECT_NAME":"GPS BIII-2","OBJECT_ID":"2019-056A","EPOCH":"2026-03-14T15:43:09.839136","MEAN_MOTION":2.00568616,"ECCENTRICITY":0.00582403,"INCLINATION":55.68,"RA_OF_ASC_NODE":334.9029,"ARG_OF_PERICENTER":197.9897,"MEAN_ANOMALY":330.8097,"EPHEMERIS_TYPE":0,"CLASSIFICATION_TYPE":"U","NORAD_CAT_ID":44506,"ELEMENT_SET_NO":999,"REV_AT_EPOCH":4817,"BSTAR":0,"MEAN_MOTION_DOT":-7.2e-7,"MEAN_MOTION_DDOT":0},{"OBJECT_NAME":"BEIDOU-3 M24","OBJECT_ID":"2019-061A","EPOCH":"2026-03-14T04:49:54.155136","MEAN_MOTION":1.862291,"ECCENTRICITY":0.00084889,"INCLINATION":54.3984,"RA_OF_ASC_NODE":185.9306,"ARG_OF_PERICENTER":19.2225,"MEAN_ANOMALY":340.7928,"EPHEMERIS_TYPE":0,"CLASSIFICATION_TYPE":"U","NORAD_CAT_ID":44542,"ELEMENT_SET_NO":999,"REV_AT_EPOCH":4402,"BSTAR":0,"MEAN_MOTION_DOT":-1.3e-7,"MEAN_MOTION_DDOT":0},{"OBJECT_NAME":"BEIDOU-3 M23","OBJECT_ID":"2019-061B","EPOCH":"2026-03-14T10:50:42.842400","MEAN_MOTION":1.86227431,"ECCENTRICITY":0.00049236,"INCLINATION":54.397,"RA_OF_ASC_NODE":185.8909,"ARG_OF_PERICENTER":10.3958,"MEAN_ANOMALY":69.7972,"EPHEMERIS_TYPE":0,"CLASSIFICATION_TYPE":"U","NORAD_CAT_ID":44543,"ELEMENT_SET_NO":999,"REV_AT_EPOCH":4403,"BSTAR":0,"MEAN_MOTION_DOT":-1.2e-7,"MEAN_MOTION_DDOT":0},{"OBJECT_NAME":"BEIDOU-3 M22","OBJECT_ID":"2019-078A","EPOCH":"2026-03-14T00:58:20.373312","MEAN_MOTION":1.8623232,"ECCENTRICITY":0.00074654,"INCLINATION":54.0216,"RA_OF_ASC_NODE":303.1765,"ARG_OF_PERICENTER":38.197,"MEAN_ANOMALY":321.912,"EPHEMERIS_TYPE":0,"CLASSIFICATION_TYPE":"U","NORAD_CAT_ID":44793,"ELEMENT_SET_NO":999,"REV_AT_EPOCH":4287,"BSTAR":0,"MEAN_MOTION_DOT":-1.9e-7,"MEAN_MOTION_DDOT":0},{"OBJECT_NAME":"BEIDOU-3 M21","OBJECT_ID":"2019-078B","EPOCH":"2026-03-14T17:12:49.298400","MEAN_MOTION":1.86228018,"ECCENTRICITY":0.00054955,"INCLINATION":53.9944,"RA_OF_ASC_NODE":303.1159,"ARG_OF_PERICENTER":33.8306,"MEAN_ANOMALY":326.262,"EPHEMERIS_TYPE":0,"CLASSIFICATION_TYPE":"U","NORAD_CAT_ID":44794,"ELEMENT_SET_NO":999,"REV_AT_EPOCH":4289,"BSTAR":0,"MEAN_MOTION_DOT":-1.6e-7,"MEAN_MOTION_DDOT":0},{"OBJECT_NAME":"ELEKTRO-L 3","OBJECT_ID":"2019-095A","EPOCH":"2026-03-13T14:02:37.157856","MEAN_MOTION":1.00270722,"ECCENTRICITY":0.00015083,"INCLINATION":0.038,"RA_OF_ASC_NODE":340.0026,"ARG_OF_PERICENTER":9.4736,"MEAN_ANOMALY":108.2976,"EPHEMERIS_TYPE":0,"CLASSIFICATION_TYPE":"U","NORAD_CAT_ID":44903,"ELEMENT_SET_NO":999,"REV_AT_EPOCH":2275,"BSTAR":0,"MEAN_MOTION_DOT":-9.6e-7,"MEAN_MOTION_DDOT":0},{"OBJECT_NAME":"GPS BIII-3","OBJECT_ID":"2020-041A","EPOCH":"2026-03-15T05:35:11.847264","MEAN_MOTION":2.00560555,"ECCENTRICITY":0.00615143,"INCLINATION":56.6123,"RA_OF_ASC_NODE":32.5896,"ARG_OF_PERICENTER":205.1444,"MEAN_ANOMALY":322.689,"EPHEMERIS_TYPE":0,"CLASSIFICATION_TYPE":"U","NORAD_CAT_ID":45854,"ELEMENT_SET_NO":999,"REV_AT_EPOCH":4215,"BSTAR":0,"MEAN_MOTION_DOT":-4.9e-7,"MEAN_MOTION_DDOT":0},{"OBJECT_NAME":"COSMOS 2547","OBJECT_ID":"2020-075A","EPOCH":"2026-03-12T06:37:56.595072","MEAN_MOTION":2.13100396,"ECCENTRICITY":0.00070074,"INCLINATION":64.5993,"RA_OF_ASC_NODE":195.7069,"ARG_OF_PERICENTER":230.8854,"MEAN_ANOMALY":129.0383,"EPHEMERIS_TYPE":0,"CLASSIFICATION_TYPE":"U","NORAD_CAT_ID":46805,"ELEMENT_SET_NO":999,"REV_AT_EPOCH":4184,"BSTAR":0,"MEAN_MOTION_DOT":1.1e-7,"MEAN_MOTION_DDOT":0}]
